KUIPER-00232            
1 67148U 25301R   26024.68835364  .00046058  00000+0  12386-2 0  9998
2 67148  51.8721 277.6021 0003411 122.7262 237.4054 15.37427100  6975
KUIPER-00241            
1 67149U 25301S   26025.33335648 -.00436185  00000+0 -12907-1 0  9996
2 67149  51.8737 274.6078 0002373 195.3858  76.1697 15.36132774  4883
KUIPER-00245            
1 67150U 25301T   26025.58334491 -.01716409  00000+0 -11994+0 0  9994
2 67150  51.8870 275.6809 0009346 246.8965 220.4481 15.08136953  5905
KUIPER-00246            
1 67151U 25301U   26024.70429339  .00044552  00000+0  12111-2 0  9999
2 67151  51.8745 277.7050 0006935 266.4456  93.5738 15.37089480  6990
KUIPER-00247            
1 67152U 25301V   26025.66748260  .00043636  00000+0  12649-2 0  9991
2 67152  51.8648 273.6187 0012344 258.8380 101.1218 15.35045593  7110
KUIPER-00248            
1 67153U 25301W   26025.38940112  .00048034  00000+0  13685-2 0  9999
2 67153  51.8661 274.7741 0010924 239.7414 120.2491 15.35559559  7243
KUIPER-00249            
1 67154U 25301X   26024.92477614  .00050442  00000+0  14043-2 0  9996
2 67154  51.8636 276.9066 0008881 237.2722 122.7409 15.36279842  7009
KUIPER-00250            
1 67155U 25301Y   26024.71621891  .00053534  00000+0  14596-2 0  9990
2 67155  51.8711 277.7792 0006557 220.1505 139.8998 15.36918744  7000
