<?xml version="1.0" encoding="UTF-8"?>
<ndm xmlns:xsi="http://www.w3.org/2001/XMLSchema-instance" xsi:noNamespaceSchemaLocation="https://sanaregistry.org/r/ndmxml_unqualified/ndmxml-2.0.0-master-2.0.xsd">
<omm id="CCSDS_OMM_VERS" version="2.0">
<header><CREATION_DATE/><ORIGINATOR/></header><body><segment><metadata><OBJECT_NAME>KUIPER-00232</OBJECT_NAME><OBJECT_ID>2025-301R</OBJECT_ID><CENTER_NAME>EARTH</CENTER_NAME><REF_FRAME>TEME</REF_FRAME><TIME_SYSTEM>UTC</TIME_SYSTEM><MEAN_ELEMENT_THEORY>SGP4</MEAN_ELEMENT_THEORY></metadata><data><meanElements><EPOCH>2026-01-24T16:31:13.754496</EPOCH><MEAN_MOTION>15.37427100</MEAN_MOTION><ECCENTRICITY>.00034112</ECCENTRICITY><INCLINATION>51.8721</INCLINATION><RA_OF_ASC_NODE>277.6021</RA_OF_ASC_NODE><ARG_OF_PERICENTER>122.7262</ARG_OF_PERICENTER><MEAN_ANOMALY>237.4054</MEAN_ANOMALY></meanElements><tleParameters><EPHEMERIS_TYPE>0</EPHEMERIS_TYPE><CLASSIFICATION_TYPE>U</CLASSIFICATION_TYPE><NORAD_CAT_ID>67148</NORAD_CAT_ID><ELEMENT_SET_NO>999</ELEMENT_SET_NO><REV_AT_EPOCH>697</REV_AT_EPOCH><BSTAR>.12385782E-2</BSTAR><MEAN_MOTION_DOT>.46058E-3</MEAN_MOTION_DOT><MEAN_MOTION_DDOT>0</MEAN_MOTION_DDOT></tleParameters></data></segment></body></omm>
<omm id="CCSDS_OMM_VERS" version="2.0">
<header><CREATION_DATE/><ORIGINATOR/></header><body><segment><metadata><OBJECT_NAME>KUIPER-00241</OBJECT_NAME><OBJECT_ID>2025-301S</OBJECT_ID><CENTER_NAME>EARTH</CENTER_NAME><REF_FRAME>TEME</REF_FRAME><TIME_SYSTEM>UTC</TIME_SYSTEM><MEAN_ELEMENT_THEORY>SGP4</MEAN_ELEMENT_THEORY></metadata><data><meanElements><EPOCH>2026-01-25T08:00:01.999872</EPOCH><MEAN_MOTION>15.36132774</MEAN_MOTION><ECCENTRICITY>.00023732</ECCENTRICITY><INCLINATION>51.8737</INCLINATION><RA_OF_ASC_NODE>274.6078</RA_OF_ASC_NODE><ARG_OF_PERICENTER>195.3858</ARG_OF_PERICENTER><MEAN_ANOMALY>76.1697</MEAN_ANOMALY></meanElements><tleParameters><EPHEMERIS_TYPE>0</EPHEMERIS_TYPE><CLASSIFICATION_TYPE>U</CLASSIFICATION_TYPE><NORAD_CAT_ID>67149</NORAD_CAT_ID><ELEMENT_SET_NO>999</ELEMENT_SET_NO><REV_AT_EPOCH>488</REV_AT_EPOCH><BSTAR>-.12906865E-1</BSTAR><MEAN_MOTION_DOT>-.436185E-2</MEAN_MOTION_DOT><MEAN_MOTION_DDOT>0</MEAN_MOTION_DDOT></tleParameters></data></segment></body></omm>
<omm id="CCSDS_OMM_VERS" version="2.0">
<header><CREATION_DATE/><ORIGINATOR/></header><body><segment><metadata><OBJECT_NAME>KUIPER-00245</OBJECT_NAME><OBJECT_ID>2025-301T</OBJECT_ID><CENTER_NAME>EARTH</CENTER_NAME><REF_FRAME>TEME</REF_FRAME><TIME_SYSTEM>UTC</TIME_SYSTEM><MEAN_ELEMENT_THEORY>SGP4</MEAN_ELEMENT_THEORY></metadata><data><meanElements><EPOCH>2026-01-25T14:00:01.000224</EPOCH><MEAN_MOTION>15.08136953</MEAN_MOTION><ECCENTRICITY>.00093466</ECCENTRICITY><INCLINATION>51.8870</INCLINATION><RA_OF_ASC_NODE>275.6809</RA_OF_ASC_NODE><ARG_OF_PERICENTER>246.8965</ARG_OF_PERICENTER><MEAN_ANOMALY>220.4481</MEAN_ANOMALY></meanElements><tleParameters><EPHEMERIS_TYPE>0</EPHEMERIS_TYPE><CLASSIFICATION_TYPE>U</CLASSIFICATION_TYPE><NORAD_CAT_ID>67150</NORAD_CAT_ID><ELEMENT_SET_NO>999</ELEMENT_SET_NO><REV_AT_EPOCH>590</REV_AT_EPOCH><BSTAR>-.11993526E+0</BSTAR><MEAN_MOTION_DOT>-.1716409E-1</MEAN_MOTION_DOT><MEAN_MOTION_DDOT>0</MEAN_MOTION_DDOT></tleParameters></data></segment></body></omm>
<omm id="CCSDS_OMM_VERS" version="2.0">
<header><CREATION_DATE/><ORIGINATOR/></header><body><segment><metadata><OBJECT_NAME>KUIPER-00246</OBJECT_NAME><OBJECT_ID>2025-301U</OBJECT_ID><CENTER_NAME>EARTH</CENTER_NAME><REF_FRAME>TEME</REF_FRAME><TIME_SYSTEM>UTC</TIME_SYSTEM><MEAN_ELEMENT_THEORY>SGP4</MEAN_ELEMENT_THEORY></metadata><data><meanElements><EPOCH>2026-01-24T16:54:10.948896</EPOCH><MEAN_MOTION>15.37089480</MEAN_MOTION><ECCENTRICITY>.00069352</ECCENTRICITY><INCLINATION>51.8745</INCLINATION><RA_OF_ASC_NODE>277.7050</RA_OF_ASC_NODE><ARG_OF_PERICENTER>266.4456</ARG_OF_PERICENTER><MEAN_ANOMALY>93.5738</MEAN_ANOMALY></meanElements><tleParameters><EPHEMERIS_TYPE>0</EPHEMERIS_TYPE><CLASSIFICATION_TYPE>U</CLASSIFICATION_TYPE><NORAD_CAT_ID>67151</NORAD_CAT_ID><ELEMENT_SET_NO>999</ELEMENT_SET_NO><REV_AT_EPOCH>699</REV_AT_EPOCH><BSTAR>.12111357E-2</BSTAR><MEAN_MOTION_DOT>.44552E-3</MEAN_MOTION_DOT><MEAN_MOTION_DDOT>0</MEAN_MOTION_DDOT></tleParameters></data></segment></body></omm>
<omm id="CCSDS_OMM_VERS" version="2.0">
<header><CREATION_DATE/><ORIGINATOR/></header><body><segment><metadata><OBJECT_NAME>KUIPER-00247</OBJECT_NAME><OBJECT_ID>2025-301V</OBJECT_ID><CENTER_NAME>EARTH</CENTER_NAME><REF_FRAME>TEME</REF_FRAME><TIME_SYSTEM>UTC</TIME_SYSTEM><MEAN_ELEMENT_THEORY>SGP4</MEAN_ELEMENT_THEORY></metadata><data><meanElements><EPOCH>2026-01-25T16:01:10.496640</EPOCH><MEAN_MOTION>15.35045593</MEAN_MOTION><ECCENTRICITY>.00123449</ECCENTRICITY><INCLINATION>51.8648</INCLINATION><RA_OF_ASC_NODE>273.6187</RA_OF_ASC_NODE><ARG_OF_PERICENTER>258.8380</ARG_OF_PERICENTER><MEAN_ANOMALY>101.1218</MEAN_ANOMALY></meanElements><tleParameters><EPHEMERIS_TYPE>0</EPHEMERIS_TYPE><CLASSIFICATION_TYPE>U</CLASSIFICATION_TYPE><NORAD_CAT_ID>67152</NORAD_CAT_ID><ELEMENT_SET_NO>999</ELEMENT_SET_NO><REV_AT_EPOCH>711</REV_AT_EPOCH><BSTAR>.12648804E-2</BSTAR><MEAN_MOTION_DOT>.43636E-3</MEAN_MOTION_DOT><MEAN_MOTION_DDOT>0</MEAN_MOTION_DDOT></tleParameters></data></segment></body></omm>
<omm id="CCSDS_OMM_VERS" version="2.0">
<header><CREATION_DATE/><ORIGINATOR/></header><body><segment><metadata><OBJECT_NAME>KUIPER-00248</OBJECT_NAME><OBJECT_ID>2025-301W</OBJECT_ID><CENTER_NAME>EARTH</CENTER_NAME><REF_FRAME>TEME</REF_FRAME><TIME_SYSTEM>UTC</TIME_SYSTEM><MEAN_ELEMENT_THEORY>SGP4</MEAN_ELEMENT_THEORY></metadata><data><meanElements><EPOCH>2026-01-25T09:20:44.256768</EPOCH><MEAN_MOTION>15.35559559</MEAN_MOTION><ECCENTRICITY>.0010924</ECCENTRICITY><INCLINATION>51.8661</INCLINATION><RA_OF_ASC_NODE>274.7741</RA_OF_ASC_NODE><ARG_OF_PERICENTER>239.7414</ARG_OF_PERICENTER><MEAN_ANOMALY>120.2491</MEAN_ANOMALY></meanElements><tleParameters><EPHEMERIS_TYPE>0</EPHEMERIS_TYPE><CLASSIFICATION_TYPE>U</CLASSIFICATION_TYPE><NORAD_CAT_ID>67153</NORAD_CAT_ID><ELEMENT_SET_NO>999</ELEMENT_SET_NO><REV_AT_EPOCH>724</REV_AT_EPOCH><BSTAR>.13685303E-2</BSTAR><MEAN_MOTION_DOT>.48034E-3</MEAN_MOTION_DOT><MEAN_MOTION_DDOT>0</MEAN_MOTION_DDOT></tleParameters></data></segment></body></omm>
<omm id="CCSDS_OMM_VERS" version="2.0">
<header><CREATION_DATE/><ORIGINATOR/></header><body><segment><metadata><OBJECT_NAME>KUIPER-00249</OBJECT_NAME><OBJECT_ID>2025-301X</OBJECT_ID><CENTER_NAME>EARTH</CENTER_NAME><REF_FRAME>TEME</REF_FRAME><TIME_SYSTEM>UTC</TIME_SYSTEM><MEAN_ELEMENT_THEORY>SGP4</MEAN_ELEMENT_THEORY></metadata><data><meanElements><EPOCH>2026-01-24T22:11:40.658496</EPOCH><MEAN_MOTION>15.36279842</MEAN_MOTION><ECCENTRICITY>.00088814</ECCENTRICITY><INCLINATION>51.8636</INCLINATION><RA_OF_ASC_NODE>276.9066</RA_OF_ASC_NODE><ARG_OF_PERICENTER>237.2722</ARG_OF_PERICENTER><MEAN_ANOMALY>122.7409</MEAN_ANOMALY></meanElements><tleParameters><EPHEMERIS_TYPE>0</EPHEMERIS_TYPE><CLASSIFICATION_TYPE>U</CLASSIFICATION_TYPE><NORAD_CAT_ID>67154</NORAD_CAT_ID><ELEMENT_SET_NO>999</ELEMENT_SET_NO><REV_AT_EPOCH>700</REV_AT_EPOCH><BSTAR>.14042701E-2</BSTAR><MEAN_MOTION_DOT>.50442E-3</MEAN_MOTION_DOT><MEAN_MOTION_DDOT>0</MEAN_MOTION_DDOT></tleParameters></data></segment></body></omm>
<omm id="CCSDS_OMM_VERS" version="2.0">
<header><CREATION_DATE/><ORIGINATOR/></header><body><segment><metadata><OBJECT_NAME>KUIPER-00250</OBJECT_NAME><OBJECT_ID>2025-301Y</OBJECT_ID><CENTER_NAME>EARTH</CENTER_NAME><REF_FRAME>TEME</REF_FRAME><TIME_SYSTEM>UTC</TIME_SYSTEM><MEAN_ELEMENT_THEORY>SGP4</MEAN_ELEMENT_THEORY></metadata><data><meanElements><EPOCH>2026-01-24T17:11:21.313824</EPOCH><MEAN_MOTION>15.36918744</MEAN_MOTION><ECCENTRICITY>.00065573</ECCENTRICITY><INCLINATION>51.8711</INCLINATION><RA_OF_ASC_NODE>277.7792</RA_OF_ASC_NODE><ARG_OF_PERICENTER>220.1505</ARG_OF_PERICENTER><MEAN_ANOMALY>139.8998</MEAN_ANOMALY></meanElements><tleParameters><EPHEMERIS_TYPE>0</EPHEMERIS_TYPE><CLASSIFICATION_TYPE>U</CLASSIFICATION_TYPE><NORAD_CAT_ID>67155</NORAD_CAT_ID><ELEMENT_SET_NO>999</ELEMENT_SET_NO><REV_AT_EPOCH>700</REV_AT_EPOCH><BSTAR>.14596051E-2</BSTAR><MEAN_MOTION_DOT>.53534E-3</MEAN_MOTION_DOT><MEAN_MOTION_DDOT>0</MEAN_MOTION_DDOT></tleParameters></data></segment></body></omm>

</ndm>
